[{"OBJECT_NAME":"ORBCOMM FM32","OBJECT_ID":"1999-065C","EPOCH":"2026-03-09T01:02:29.080032","MEAN_MOTION":14.3696516,"ECCENTRICITY":0.00057226,"INCLINATION":45.0154,"RA_OF_ASC_NODE":287.2018,"ARG_OF_PERICENTER":281.4865,"MEAN_ANOMALY":78.534,"EPHEMERIS_TYPE":0,"CLASSIFICATION_TYPE":"U","NORAD_CAT_ID":25982,"ELEMENT_SET_NO":999,"REV_AT_EPOCH":37268,"BSTAR":0.00040930249,"MEAN_MOTION_DOT":1.082e-5,"MEAN_MOTION_DDOT":0},{"OBJECT_NAME":"ORBCOMM FM30","OBJECT_ID":"1999-065A","EPOCH":"2026-03-09T12:45:12.121056","MEAN_MOTION":14.37980433,"ECCENTRICITY":0.00059224,"INCLINATION":45.0309,"RA_OF_ASC_NODE":273.1053,"ARG_OF_PERICENTER":258.7101,"MEAN_ANOMALY":101.3082,"EPHEMERIS_TYPE":0,"CLASSIFICATION_TYPE":"U","NORAD_CAT_ID":25980,"ELEMENT_SET_NO":999,"REV_AT_EPOCH":37263,"BSTAR":0.00037413456,"MEAN_MOTION_DOT":9.99e-6,"MEAN_MOTION_DDOT":0}]
